ONEWEB-0560             
1 55145U 23004F   24301.70005856  .00000123  00000+0  27971-3 0  9994
2 55145  87.9069  94.3905 0001836  82.4345 277.6996 13.18684737 90963
ONEWEB-0565             
1 55146U 23004G   24301.39021406  .00000174  00000+0  40803-3 0  9994
2 55146  87.9062  94.5238 0001459  67.7830 292.3457 13.18684478 90917
ONEWEB-0567             
1 55147U 23004H   24301.68741184  .00000076  00000+0  16126-3 0  9991
2 55147  87.9063  94.4189 0001715  74.4685 285.6637 13.18686025 90950
ONEWEB-0569             
1 55148U 23004J   24301.85101383  .00000180  00000+0  45869-3 0  9994
2 55148  87.8894  79.0242 0002139  66.5891 293.5462 13.13467782 91769
ONEWEB-0570             
1 55149U 23004K   24301.82650769  .00000077  00000+0  16276-3 0  9994
2 55149  87.9067  94.3906 0000826  84.9138 275.2088 13.18684575 90967
ONEWEB-0571             
1 55150U 23004L   24301.66844747  .00000134  00000+0  30740-3 0  9995
2 55150  87.9067  94.4293 0001617  53.1957 306.9324 13.18688505 90956
ONEWEB-0572             
1 55151U 23004M   24301.74979657  .00000083  00000+0  18039-3 0  9994
2 55151  87.9074 124.8834 0001344  76.4634 283.6648 13.17651458 88808
ONEWEB-0573             
1 55152U 23004N   24301.66210044  .00000070  00000+0  14367-3 0  9990
2 55152  87.9062  94.4451 0001287  53.2217 306.9033 13.18683751 90946
